[{"OBJECT_NAME":"STARLINK-5742","OBJECT_ID":"2023-020Q","EPOCH":"2026-03-09T22:00:01.999584","MEAN_MOTION":15.14945834,"ECCENTRICITY":7.796e-5,"INCLINATION":43.0014,"RA_OF_ASC_NODE":3.0271,"ARG_OF_PERICENTER":260.1747,"MEAN_ANOMALY":254.0226,"EPHEMERIS_TYPE":0,"CLASSIFICATION_TYPE":"U","NORAD_CAT_ID":55583,"ELEMENT_SET_NO":999,"REV_AT_EPOCH":577,"BSTAR":0.063095573,"MEAN_MOTION_DOT":0.01298259,"MEAN_MOTION_DDOT":0},{"OBJECT_NAME":"FLOCK 4H-27","OBJECT_ID":"2025-276BS","EPOCH":"2026-03-09T15:28:45.305184","MEAN_MOTION":15.19247235,"ECCENTRICITY":9.007e-5,"INCLINATION":97.4236,"RA_OF_ASC_NODE":143.9415,"ARG_OF_PERICENTER":82.7851,"MEAN_ANOMALY":277.3486,"EPHEMERIS_TYPE":0,"CLASSIFICATION_TYPE":"U","NORAD_CAT_ID":66730,"ELEMENT_SET_NO":999,"REV_AT_EPOCH":1531,"BSTAR":0.00032968114,"MEAN_MOTION_DOT":6.882e-5,"MEAN_MOTION_DDOT":0}]
